BEESAT-4                
1 41619U 16040W   22273.38139099  .00018789  00000+0  57610-3 0  9994
2 41619  97.2050 321.3246 0010584 101.4170 258.8262 15.33761272336797
RAVAN                   
1 41849U 16067B   22273.64045606  .00005029  00000+0  39506-3 0  9994
2 41849  98.0099  53.7782 0014296 348.9771  11.1137 15.01299082321777
CELTEE 1                
1 41850U 16067C   22273.80744079  .00003687  00000+0  31038-3 0  9994
2 41850  98.0155  48.5844 0008627   0.9551 359.1685 14.98861299321532
OPTICUBE 04             
1 41851U 16067D   22273.83979767  .00002165  00000+0  18843-3 0  9991
2 41851  98.0103  47.5281 0008240 355.9643   4.1511 14.98033610321483
AEROCUBE 8D             
1 41852U 16067E   22273.66912165  .00004574  00000+0  38419-3 0  9999
2 41852  98.0124  47.4509 0009327   3.5080 356.6206 14.98809577321453
AEROCUBE 8C             
1 41853U 16067F   22273.85262769  .00004627  00000+0  38907-3 0  9990
2 41853  98.0088  47.4485 0008776   1.9127 358.2127 14.98766557321479
PROMETHEUS 2-1          
1 41854U 16067G   22273.86564353  .00007454  00000+0  59936-3 0  9992
2 41854  98.0142  48.7429 0015906   1.4692 358.6574 15.00212441321548
PROMETHEUS 2-3          
1 41855U 16067H   22273.92348285  .00007436  00000+0  59817-3 0  9992
2 41855  98.0090  48.8838 0014662  20.2726 339.9076 15.00211448321557
INS-1B                  
1 41954U 17008G   22274.14186810  .00017880  00000+0  54522-3 0  9999
2 41954  97.2456 331.9468 0006570 203.9704 156.1234 15.33981863312932
BGUSAT                  
1 41999U 17008BD  22274.19105870  .00046081  00000+0  89675-3 0  9992
2 41999  97.2696 344.6032 0005197 183.5233 176.5982 15.47429442312952
DIDO-2                  
1 42000U 17008BE  22274.10492416  .00012559  00000+0  43581-3 0  9991
2 42000  97.2449 330.7572 0005913 233.3280 126.7418 15.29906086312213
PEASSS                  
1 42015U 17008BV  22274.16707762  .00015855  00000+0  48695-3 0  9999
2 42015  97.2516 335.2633 0004113 218.9825 141.1122 15.33791980312962
AL-FARABI 1             
1 42016U 17008BW  22274.15602048  .00022552  00000+0  61171-3 0  9996
2 42016  97.2582 338.8684 0003739 208.0816 152.0228 15.37623058313271
NAYIF-1 (EO-88)         
1 42017U 17008BX  22274.16033108  .00022673  00000+0  61134-3 0  9996
2 42017  97.2576 338.8985 0004020 207.6444 152.4587 15.37805160313307
UCLSAT                  
1 42765U 17036A   22273.82648956  .00018463  00000+0  59910-3 0  9993
2 42765  97.1868 313.2845 0007183 314.9074  45.1584 15.31983376293971
LITUANICASAT-2          
1 42768U 17036D   22274.06768283  .00048321  00000+0  11768-2 0  9993
2 42768  97.1941 317.4350 0007328 283.5454  76.4977 15.40749240293486
AALTO-1                 
1 42775U 17036L   22273.33558527  .00008378  00000+0  31944-3 0  9995
2 42775  97.1883 307.1912 0010641 321.4432  38.6047 15.26878401292774
URSA MAIOR              
1 42776U 17036M   22273.33943963  .00009294  00000+0  34680-3 0  9996
2 42776  97.1898 308.0375 0010329 319.7037  40.3437 15.27565765292813
COMPASS 2               
1 42777U 17036N   22274.09372590  .00032965  00000+0  93955-3 0  9994
2 42777  97.1930 316.2252 0007030 293.7067  66.3440 15.35985886293345
DIAMOND RED             
1 42783U 17036U   22273.67535837  .00013093  00000+0  46617-3 0  9993
2 42783  97.1898 310.9023 0008727 323.8757  36.1893 15.29035112293019
PEGASUS                 
1 42784U 17036V   22273.35780825  .00013327  00000+0  44794-3 0  9992
2 42784  97.1888 311.9733 0008128 320.8511  39.2142 15.30910292293056
DIAMOND GREEN           
1 42785U 17036W   22274.06873155  .00014867  00000+0  52871-3 0  9996
2 42785  97.1901 311.3460 0008481 323.7202  36.3462 15.29047009293064
DIAMOND BLUE            
1 42786U 17036X   22274.06783266  .00014691  00000+0  52259-3 0  9995
2 42786  97.1896 311.3369 0008567 324.2951  35.7716 15.29039970293061
NUDTSAT                 
1 42787U 17036Y   22273.94451877  .00025048  00000+0  68419-3 0  9995
2 42787  97.1920 317.5342 0005777 300.7593  59.3086 15.37375086293286
SUCHAI                  
1 42788U 17036Z   22273.34821432  .00017078  00000+0  53429-3 0  9997
2 42788  97.1889 313.9102 0007139 313.4657  46.5992 15.33170337293249
SKCUBE                  
1 42789U 17036AA  22273.86134619  .00019534  00000+0  62980-3 0  9990
2 42789  97.1891 313.7402 0007336 313.4257  46.6374 15.32177910293203
VZLUSAT-1               
1 42790U 17036AB  22273.37863671  .00025271  00000+0  69616-3 0  9993
2 42790  97.1911 316.9214 0005723 301.0497  59.0186 15.37109463293348
ROBUSTA 1B              
1 42792U 17036AD  22274.10241353  .00017507  00000+0  55233-3 0  9997
2 42792  97.1891 314.6265 0006808 312.0024  48.0638 15.32898849293293
CICERO 6                
1 42793U 17036AE  22274.09824563  .00013039  00000+0  46715-3 0  9997
2 42793  97.1876 311.8107 0007288 323.4416  36.6326 15.28842614293207
CORVUS BC2              
1 42846U 17042X   22273.83961403  .00001787  00000+0  17626-3 0  9995
2 42846  97.4102 125.1354 0009727  13.3131 346.8344 14.93129362284003
CORVUS BC1              
1 42847U 17042Y   22274.18109063  .00001545  00000+0  15273-3 0  9999
2 42847  97.4102 125.7808 0009362  11.4464 348.6967 14.93222303284063
MIRATA                  
1 43015U 17073C   22274.17274848  .00008106  00000+0  57879-3 0  9992
2 43015  97.6587 165.5692 0234126 192.8051 166.7155 14.85250328262958
MAKERSAT 0              
1 43016U 17073D   22274.13357451  .00005249  00000+0  38683-3 0  9998
2 43016  97.6599 164.8431 0242075 198.2463 160.9955 14.83192939262847
CORVUS BC3              
1 43118U 18004H   22274.19801361  .00009671  00000+0  34885-3 0  9999
2 43118  97.3532 345.5825 0008500 358.6314   1.4902 15.28693963262360
MICROMAS-2A             
1 43131U 18004W   22273.66240205  .00040136  00000+0  97512-3 0  9996
2 43131  97.3675 353.4699 0004836 336.9968  23.1061 15.40880396262754
SPACEBEE-4              
1 43139U 18004AE  22274.17100606  .00096468  00000+0  13883-2 0  9998
2 43139  97.3763   0.7550 0003623 302.6096  57.4809 15.55715288263207
SPACEBEE-3              
1 43140U 18004AF  22273.59544190  .02517951  75931-2  31772-2 0  9997
2 43140  97.3640   7.0396 0012587 286.5839  73.4062 16.09307739263549
CICERO 7                
1 43143U 18004AJ  22274.20332945  .00020327  00000+0  57214-3 0  9998
2 43143  97.3658 352.9726 0004619 355.4182   4.7019 15.36490261262791
GOMX-4B                 
1 43196U 18015E   22273.61694418  .00011555  00000+0  42065-3 0  9999
2 43196  97.5488  54.1481 0017758  49.2682 311.0096 15.28236080259212
GOMX-4A                 
1 43197U 18015F   22274.14145953  .00009568  00000+0  32912-3 0  9995
2 43197  97.5485  55.7728 0017228  46.9528 126.0270 15.30150601259378
AEROCUBE 12A            
1 43556U 18046C   22273.88326859  .00035758  00000+0  79946-3 0  9992
2 43556  51.6373  28.5419 0006604  51.3056 308.8519 15.43131121235573
AEROCUBE 12B            
1 43557U 18046D   22273.39585213  .00020470  00000+0  50908-3 0  9992
2 43557  51.6383  37.2006 0006873  49.0301 311.1278 15.40237443235366
SURFSAT                 
1 43614U 18070B   22273.84891398  .00075201  00000+0  80265-3 0  9998
2 43614  93.0149 143.6892 0006385 339.0514  21.0491 15.63672803227487
CP7 (DAVE)              
1 43615U 18070C   22274.16341999  .00051848  00000+0  60579-3 0  9999
2 43615  93.0136 143.5481 0007285 341.1619  18.9376 15.61403793227482
ELFIN-B                 
1 43616U 18070D   22273.19173268  .15406410  25966-6  24527-3 0  9997
2 43616  92.9806 145.7922 0009909 241.3990 118.6326 16.47871482227917
CUBEBEL-1 (BSUSAT-1)    
1 43666U 18083E   22274.10309234  .00010694  00000+0  43193-3 0  9996
2 43666  97.4136 301.6694 0011399 328.6932 116.3224 15.24884546217570
CICERO 10               
1 43690U 18088A   22273.97787995  .00012394  00000+0  47537-3 0  9991
2 43690  85.0347 246.2072 0015925 112.7395 247.5535 15.26239776215821
IRVINE01                
1 43693U 18088D   22273.84859302  .00086139  00000+0  17788-2 0  9994
2 43693  85.0259 239.0022 0015085  83.0201 277.2769 15.45404139216451
PROXIMA I               
1 43694U 18088E   22273.43088920  .00013677  00000+0  49783-3 0  9998
2 43694  85.0287 242.9970 0019563  86.5231 273.8251 15.27909213215993
PROXIMA II              
1 43696U 18088G   22273.62924979  .00014184  00000+0  51672-3 0  9998
2 43696  85.0287 242.8877 0019611  85.8769 274.4717 15.27883799216010
FACSAT-1                
1 43721U 18096C   22274.15879793  .00027760  00000+0  69264-3 0  9998
2 43721  97.3437 354.0942 0012719  39.4249 354.5702 15.40074916214224
CENTAURI-2              
1 43722U 18096D   22273.49631864  .00048920  00000+0  10387-2 0  9992
2 43722  97.3485 356.0926 0011222  33.5632 326.6326 15.44813055214266
INNOSAT-2               
1 43738U 18096V   22274.24663691  .00117999  00000+0  13337-2 0  9997
2 43738  97.3588   6.0779 0008905   3.5073  80.9556 15.62028351214942
SIRION PATHFINDER-2     
1 43759U 18099B   22274.15170457  .00001780  00000+0  16080-3 0  9995
2 43759  97.6104 338.1222 0012253 266.8619  93.1201 14.96669162208858
CORVUS BC4              
1 43767U 18099K   22274.14833715  .00001938  00000+0  17734-3 0  9998
2 43767  97.6057 336.4710 0009879 273.9531  86.0561 14.96076200208775
MOVE-II                 
1 43780U 18099Y   22274.15140384  .00005299  00000+0  44766-3 0  9996
2 43780  97.6159 339.1338 0010873 277.6434  82.3554 14.98469694208886
SPACEBEE-7              
1 43816U 18099BL  22274.14905800  .00004759  00000+0  40495-3 0  9992
2 43816  97.6179 339.8577 0010776 257.3069 102.6949 14.98240138208470
SPACEBEE-5              
1 43817U 18099BM  22273.46510414  .00012037  00000+0  90340-3 0  9992
2 43817  97.6266 342.8099 0004459 245.2853 114.7909 15.02771562208532
SPACEBEE-6              
1 43818U 18099BN  22273.82466803  .00007475  00000+0  61223-3 0  9993
2 43818  97.6233 340.6506 0010521 261.5047  98.4984 14.99535017208628
